ONEWEB-0231             
1 48782U 21045R   25349.29299169  .00000184  00000+0  45375-3 0  9990
2 48782  87.8989 295.8974 0002080  73.9598 286.1761 13.15549458220162
ONEWEB-0234             
1 48783U 21045S   25349.33087953  .00000057  00000+0  11812-3 0  9990
2 48783  87.9001 295.8638 0001000  69.6193 290.5044 13.15548701220309
ONEWEB-0238             
1 48784U 21045T   25349.33115413  .00000043  00000+0  80511-4 0  9992
2 48784  87.8996 295.8572 0001397  75.1063 285.0222 13.15546997220207
ONEWEB-0240             
1 48785U 21045U   25349.35239671  .00000017  00000+0  11042-4 0  9992
2 48785  87.9006 295.8482 0001866  66.8368 293.2959 13.15550490220231
ONEWEB-0246             
1 48786U 21045V   25349.34685148  .00000002  00000+0 -29972-4 0  9992
2 48786  87.9004 295.8598 0002008  78.5937 281.5419 13.15550317220104
ONEWEB-0210             
1 48787U 21045W   25349.32150486  .00000182  00000+0  44810-3 0  9998
2 48787  87.9004 295.8634 0002491  74.8011 285.3394 13.15549646220145
ONEWEB-0214             
1 48788U 21045X   25349.33022369  .00000108  00000+0  25303-3 0  9992
2 48788  87.9014 295.8534 0002279  80.5598 279.5790 13.15547687220119
ONEWEB-0221             
1 48789U 21045Y   25349.33735312  .00000021  00000+0  21264-4 0  9999
2 48789  87.9002 295.8666 0001993  72.8641 287.2707 13.15549200220205
ONEWEB-0213             
1 48790U 21045Z   25349.32624625  .00000142  00000+0  34392-3 0  9993
2 48790  87.8992 295.8761 0002080  73.6649 286.4710 13.15550953220263
ONEWEB-0212             
1 48791U 21045AA  25349.30326419  .00000238  00000+0  59785-3 0  9991
2 48791  87.9001 295.8710 0001766  77.5928 282.5400 13.15550670220251
ONEWEB-0227             
1 48792U 21045AB  25349.30249506  .00000188  00000+0  46403-3 0  9990
2 48792  87.8991 295.8811 0001837  75.3183 284.8151 13.15549851220201
ONEWEB-0226             
1 48793U 21045AC  25349.29614863  .00000213  00000+0  53240-3 0  9997
2 48793  87.8990 295.8915 0002153  75.7064 284.4305 13.15546464220170
ONEWEB-0224             
1 48794U 21045AD  25349.33576320  .00000054  00000+0  11018-3 0  9998
2 48794  87.8996 295.9190 0001625  47.8843 312.2425 13.15549938220106
ONEWEB-0233             
1 48795U 21045AE  25349.34037384  .00000003  00000+0 -26400-4 0  9999
2 48795  87.8993 295.9285 0001954  68.8026 291.3313 13.15549901220125
ONEWEB-0190             
1 48796U 21045AF  25349.32784988  .00000056  00000+0  11449-3 0  9990
2 48796  87.8992 295.8927 0002460  65.5254 294.6133 13.15549498220191
ONEWEB-0236             
1 48797U 21045AG  25349.34526700 -.00000012  00000+0 -66776-4 0  9997
2 48797  87.8992 295.9004 0001698  79.2840 280.8481 13.15550053220084
ONEWEB-0248             
1 48798U 21045AH  25349.35793499 -.00000007  00000+0 -51937-4 0  9997
2 48798  87.9001 295.8619 0001968  60.1606 299.9720 13.15551002220247
