[{"OBJECT_NAME":"ONEWEB-0231","OBJECT_ID":"2021-045R","EPOCH":"2025-12-15T07:01:54.482016","MEAN_MOTION":13.15549458,"ECCENTRICITY":0.00020805,"INCLINATION":87.8989,"RA_OF_ASC_NODE":295.8974,"ARG_OF_PERICENTER":73.9598,"MEAN_ANOMALY":286.1761,"EPHEMERIS_TYPE":0,"CLASSIFICATION_TYPE":"U","NORAD_CAT_ID":48782,"ELEMENT_SET_NO":999,"REV_AT_EPOCH":22016,"BSTAR":0.00045375337,"MEAN_MOTION_DOT":1.84e-6,"MEAN_MOTION_DDOT":0},{"OBJECT_NAME":"ONEWEB-0234","OBJECT_ID":"2021-045S","EPOCH":"2025-12-15T07:56:27.991392","MEAN_MOTION":13.15548701,"ECCENTRICITY":0.00010002,"INCLINATION":87.9001,"RA_OF_ASC_NODE":295.8638,"ARG_OF_PERICENTER":69.6193,"MEAN_ANOMALY":290.5044,"EPHEMERIS_TYPE":0,"CLASSIFICATION_TYPE":"U","NORAD_CAT_ID":48783,"ELEMENT_SET_NO":999,"REV_AT_EPOCH":22030,"BSTAR":0.00011811877,"MEAN_MOTION_DOT":5.7e-7,"MEAN_MOTION_DDOT":0},{"OBJECT_NAME":"ONEWEB-0238","OBJECT_ID":"2021-045T","EPOCH":"2025-12-15T07:56:51.716832","MEAN_MOTION":13.15546997,"ECCENTRICITY":0.00013978,"INCLINATION":87.8996,"RA_OF_ASC_NODE":295.8572,"ARG_OF_PERICENTER":75.1063,"MEAN_ANOMALY":285.0222,"EPHEMERIS_TYPE":0,"CLASSIFICATION_TYPE":"U","NORAD_CAT_ID":48784,"ELEMENT_SET_NO":999,"REV_AT_EPOCH":22020,"BSTAR":8.0510865e-5,"MEAN_MOTION_DOT":4.3e-7,"MEAN_MOTION_DDOT":0},{"OBJECT_NAME":"ONEWEB-0240","OBJECT_ID":"2021-045U","EPOCH":"2025-12-15T08:27:27.075744","MEAN_MOTION":13.1555049,"ECCENTRICITY":0.00018667,"INCLINATION":87.9006,"RA_OF_ASC_NODE":295.8482,"ARG_OF_PERICENTER":66.8368,"MEAN_ANOMALY":293.2959,"EPHEMERIS_TYPE":0,"CLASSIFICATION_TYPE":"U","NORAD_CAT_ID":48785,"ELEMENT_SET_NO":999,"REV_AT_EPOCH":22023,"BSTAR":1.1041661e-5,"MEAN_MOTION_DOT":1.7e-7,"MEAN_MOTION_DDOT":0},{"OBJECT_NAME":"ONEWEB-0246","OBJECT_ID":"2021-045V","EPOCH":"2025-12-15T08:19:27.967872","MEAN_MOTION":13.15550317,"ECCENTRICITY":0.00020081,"INCLINATION":87.9004,"RA_OF_ASC_NODE":295.8598,"ARG_OF_PERICENTER":78.5937,"MEAN_ANOMALY":281.5419,"EPHEMERIS_TYPE":0,"CLASSIFICATION_TYPE":"U","NORAD_CAT_ID":48786,"ELEMENT_SET_NO":999,"REV_AT_EPOCH":22010,"BSTAR":-2.99724e-5,"MEAN_MOTION_DOT":2.0e-8,"MEAN_MOTION_DDOT":0},{"OBJECT_NAME":"ONEWEB-0210","OBJECT_ID":"2021-045W","EPOCH":"2025-12-15T07:42:58.019904","MEAN_MOTION":13.15549646,"ECCENTRICITY":0.00024917,"INCLINATION":87.9004,"RA_OF_ASC_NODE":295.8634,"ARG_OF_PERICENTER":74.8011,"MEAN_ANOMALY":285.3394,"EPHEMERIS_TYPE":0,"CLASSIFICATION_TYPE":"U","NORAD_CAT_ID":48787,"ELEMENT_SET_NO":999,"REV_AT_EPOCH":22014,"BSTAR":0.00044810028,"MEAN_MOTION_DOT":1.82e-6,"MEAN_MOTION_DDOT":0},{"OBJECT_NAME":"ONEWEB-0214","OBJECT_ID":"2021-045X","EPOCH":"2025-12-15T07:55:31.326816","MEAN_MOTION":13.15547687,"ECCENTRICITY":0.00022794,"INCLINATION":87.9014,"RA_OF_ASC_NODE":295.8534,"ARG_OF_PERICENTER":80.5598,"MEAN_ANOMALY":279.579,"EPHEMERIS_TYPE":0,"CLASSIFICATION_TYPE":"U","NORAD_CAT_ID":48788,"ELEMENT_SET_NO":999,"REV_AT_EPOCH":22011,"BSTAR":0.00025302852,"MEAN_MOTION_DOT":1.08e-6,"MEAN_MOTION_DDOT":0},{"OBJECT_NAME":"ONEWEB-0221","OBJECT_ID":"2021-045Y","EPOCH":"2025-12-15T08:05:47.309568","MEAN_MOTION":13.155492,"ECCENTRICITY":0.00019935,"INCLINATION":87.9002,"RA_OF_ASC_NODE":295.8666,"ARG_OF_PERICENTER":72.8641,"MEAN_ANOMALY":287.2707,"EPHEMERIS_TYPE":0,"CLASSIFICATION_TYPE":"U","NORAD_CAT_ID":48789,"ELEMENT_SET_NO":999,"REV_AT_EPOCH":22020,"BSTAR":2.1263878e-5,"MEAN_MOTION_DOT":2.1e-7,"MEAN_MOTION_DDOT":0},{"OBJECT_NAME":"ONEWEB-0213","OBJECT_ID":"2021-045Z","EPOCH":"2025-12-15T07:49:47.676000","MEAN_MOTION":13.15550953,"ECCENTRICITY":0.00020809,"INCLINATION":87.8992,"RA_OF_ASC_NODE":295.8761,"ARG_OF_PERICENTER":73.6649,"MEAN_ANOMALY":286.471,"EPHEMERIS_TYPE":0,"CLASSIFICATION_TYPE":"U","NORAD_CAT_ID":48790,"ELEMENT_SET_NO":999,"REV_AT_EPOCH":22026,"BSTAR":0.00034391584,"MEAN_MOTION_DOT":1.42e-6,"MEAN_MOTION_DDOT":0},{"OBJECT_NAME":"ONEWEB-0212","OBJECT_ID":"2021-045AA","EPOCH":"2025-12-15T07:16:42.026016","MEAN_MOTION":13.1555067,"ECCENTRICITY":0.0001766,"INCLINATION":87.9001,"RA_OF_ASC_NODE":295.871,"ARG_OF_PERICENTER":77.5928,"MEAN_ANOMALY":282.54,"EPHEMERIS_TYPE":0,"CLASSIFICATION_TYPE":"U","NORAD_CAT_ID":48791,"ELEMENT_SET_NO":999,"REV_AT_EPOCH":22025,"BSTAR":0.00059785168,"MEAN_MOTION_DOT":2.38e-6,"MEAN_MOTION_DDOT":0},{"OBJECT_NAME":"ONEWEB-0227","OBJECT_ID":"2021-045AB","EPOCH":"2025-12-15T07:15:35.573184","MEAN_MOTION":13.15549851,"ECCENTRICITY":0.00018371,"INCLINATION":87.8991,"RA_OF_ASC_NODE":295.8811,"ARG_OF_PERICENTER":75.3183,"MEAN_ANOMALY":284.8151,"EPHEMERIS_TYPE":0,"CLASSIFICATION_TYPE":"U","NORAD_CAT_ID":48792,"ELEMENT_SET_NO":999,"REV_AT_EPOCH":22020,"BSTAR":0.00046403321,"MEAN_MOTION_DOT":1.88e-6,"MEAN_MOTION_DDOT":0},{"OBJECT_NAME":"ONEWEB-0226","OBJECT_ID":"2021-045AC","EPOCH":"2025-12-15T07:06:27.241632","MEAN_MOTION":13.15546464,"ECCENTRICITY":0.00021535,"INCLINATION":87.899,"RA_OF_ASC_NODE":295.8915,"ARG_OF_PERICENTER":75.7064,"MEAN_ANOMALY":284.4305,"EPHEMERIS_TYPE":0,"CLASSIFICATION_TYPE":"U","NORAD_CAT_ID":48793,"ELEMENT_SET_NO":999,"REV_AT_EPOCH":22017,"BSTAR":0.00053240287,"MEAN_MOTION_DOT":2.13e-6,"MEAN_MOTION_DDOT":0},{"OBJECT_NAME":"ONEWEB-0224","OBJECT_ID":"2021-045AD","EPOCH":"2025-12-15T08:03:29.940480","MEAN_MOTION":13.15549938,"ECCENTRICITY":0.0001625,"INCLINATION":87.8996,"RA_OF_ASC_NODE":295.919,"ARG_OF_PERICENTER":47.8843,"MEAN_ANOMALY":312.2425,"EPHEMERIS_TYPE":0,"CLASSIFICATION_TYPE":"U","NORAD_CAT_ID":48794,"ELEMENT_SET_NO":999,"REV_AT_EPOCH":22010,"BSTAR":0.00011017741,"MEAN_MOTION_DOT":5.4e-7,"MEAN_MOTION_DDOT":0},{"OBJECT_NAME":"ONEWEB-0233","OBJECT_ID":"2021-045AE","EPOCH":"2025-12-15T08:10:08.299776","MEAN_MOTION":13.15549901,"ECCENTRICITY":0.00019542,"INCLINATION":87.8993,"RA_OF_ASC_NODE":295.9285,"ARG_OF_PERICENTER":68.8026,"MEAN_ANOMALY":291.3313,"EPHEMERIS_TYPE":0,"CLASSIFICATION_TYPE":"U","NORAD_CAT_ID":48795,"ELEMENT_SET_NO":999,"REV_AT_EPOCH":22012,"BSTAR":-2.6400077e-5,"MEAN_MOTION_DOT":3.0e-8,"MEAN_MOTION_DDOT":0},{"OBJECT_NAME":"ONEWEB-0190","OBJECT_ID":"2021-045AF","EPOCH":"2025-12-15T07:52:06.229632","MEAN_MOTION":13.15549498,"ECCENTRICITY":0.00024605,"INCLINATION":87.8992,"RA_OF_ASC_NODE":295.8927,"ARG_OF_PERICENTER":65.5254,"MEAN_ANOMALY":294.6133,"EPHEMERIS_TYPE":0,"CLASSIFICATION_TYPE":"U","NORAD_CAT_ID":48796,"ELEMENT_SET_NO":999,"REV_AT_EPOCH":22019,"BSTAR":0.00011448647,"MEAN_MOTION_DOT":5.6e-7,"MEAN_MOTION_DDOT":0},{"OBJECT_NAME":"ONEWEB-0236","OBJECT_ID":"2021-045AG","EPOCH":"2025-12-15T08:17:11.068800","MEAN_MOTION":13.15550053,"ECCENTRICITY":0.0001698,"INCLINATION":87.8992,"RA_OF_ASC_NODE":295.9004,"ARG_OF_PERICENTER":79.284,"MEAN_ANOMALY":280.8481,"EPHEMERIS_TYPE":0,"CLASSIFICATION_TYPE":"U","NORAD_CAT_ID":48797,"ELEMENT_SET_NO":999,"REV_AT_EPOCH":22008,"BSTAR":-6.6776469e-5,"MEAN_MOTION_DOT":-1.2e-7,"MEAN_MOTION_DDOT":0},{"OBJECT_NAME":"ONEWEB-0248","OBJECT_ID":"2021-045AH","EPOCH":"2025-12-15T08:35:25.583136","MEAN_MOTION":13.15551002,"ECCENTRICITY":0.00019687,"INCLINATION":87.9001,"RA_OF_ASC_NODE":295.8619,"ARG_OF_PERICENTER":60.1606,"MEAN_ANOMALY":299.972,"EPHEMERIS_TYPE":0,"CLASSIFICATION_TYPE":"U","NORAD_CAT_ID":48798,"ELEMENT_SET_NO":999,"REV_AT_EPOCH":22024,"BSTAR":-5.1937345e-5,"MEAN_MOTION_DOT":-7.0e-8,"MEAN_MOTION_DDOT":0}]
